GLOBALSTAR M057         
1 25943U 99058A   25343.64872602 -.00000038  00000+0  49608-3 0  9997
2 25943  51.9964 210.2425 0003167  30.0808 330.0223 12.24831545188433
GLOBALSTAR M059         
1 25944U 99058B   25343.69926498 -.00000067  00000+0  23224-3 0  9994
2 25944  52.0023  92.3500 0000624 114.9798  28.3291 11.99988207595118
GLOBALSTAR M056         
1 25945U 99058C   25343.55049794 -.00000134  00000+0 -54342-3 0  9996
2 25945  51.9970  90.2173 0001563 149.5266 223.7000 12.04781418183763
GLOBALSTAR M031         
1 25946U 99058D   25343.67863582 -.00000131  00000+0 -41566-3 0  9990
2 25946  51.9979 331.6857 0001166 169.3948   3.4514 12.16044162185890
GLOBALSTAR M039         
1 25961U 99062A   25343.70671302 -.00000066  00000+0  20905-3 0  9993
2 25961  51.9845  94.1102 0002592  36.1993 323.9049 12.62338814202386
GLOBALSTAR M034         
1 25962U 99062B   25343.57173016 -.00000061  00000+0  31185-3 0  9995
2 25962  51.9884 275.4873 0014894  14.6112 155.9125 11.79453147159081
GLOBALSTAR M029         
1 25963U 99062C   25343.72690610 -.00000045  00000+0  51589-3 0  9999
2 25963  51.9830 340.1626 0002568  99.6574  71.1979 11.99904060190199
GLOBALSTAR M061         
1 25964U 99062D   25343.71295360 -.00000094  00000+0 -22977-3 0  9996
2 25964  51.9792 101.4827 0004982 294.2434 207.0748 11.76778161141846
